0 FENGYUN 1C DEB
1 32123U 99025CRR 13282.29965544  .00000598  00000-0  12977-3 0  7232
2 32123 098.9562 090.4655 0184034 107.1603 013.5125 14.52311114329496
0 FENGYUN 1C DEB
1 32123U 99025CRR 13283.33254984  .00000562  00000-0  12271-3 0  7246
2 32123 098.9561 091.5677 0184044 104.0677 013.7928 14.52313698329648
0 FENGYUN 1C DEB
1 32123U 99025CRR 13284.41857999  .00000606  00000-0  13138-3 0  7254
2 32123 098.9562 092.7268 0183981 100.7924 291.9183 14.52316801329805
0 FENGYUN 1C DEB
1 32123U 99025CRR 13285.66452667  .00000588  00000-0  12778-3 0  7264
2 32123 098.9562 094.0564 0183960 097.0563 326.1345 14.52319173329988
0 FENGYUN 1C DEB
1 32123U 99025CRR 13287.32843902  .00000679  00000-0  14560-3 0  7278
2 32123 098.9562 095.8318 0183975 092.0675 025.6247 14.52322331330220
0 FENGYUN 1C DEB
1 32123U 99025CRR 13288.42010990  .00000997  00000-0  20818-3 0  7280
2 32123 098.9563 096.9967 0183957 088.7934 333.2557 14.52325674330385
0 FENGYUN 1C DEB
1 32123U 99025CRR 13289.44738775  .00000699  00000-0  14959-3 0  7290
2 32123 098.9565 098.0930 0183930 085.7125 304.2271 14.52328461330535
0 FENGYUN 1C DEB
1 32123U 99025CRR 13291.25650523  .00000748  00000-0  15928-3 0  7300
2 32123 098.9568 100.0235 0183859 080.2802 042.9579 14.52329705330799
0 FENGYUN 1C DEB
1 32123U 99025CRR 13292.28971359  .00000793  00000-0  16809-3 0  7317
2 32123 098.9568 101.1261 0183863 077.1860 044.9470 14.52330490330946
0 FENGYUN 1C DEB
1 32123U 99025CRR 13293.32257241  .00000832  00000-0  17590-3 0  7323
2 32123 098.9568 102.2284 0183823 074.0866 045.1194 14.52331924331097
0 FENGYUN 1C DEB
1 32123U 99025CRR 13294.75836987  .00000846  00000-0  17864-3 0  7331
2 32123 098.9568 103.7607 0183777 069.7778 352.0135 14.52334380331301
0 FENGYUN 1C DEB
1 32123U 99025CRR 13295.94718010  .00000728  00000-0  15552-3 0  7341
2 32123 098.9567 105.0294 0183734 066.1989 087.5844 14.52336322331478
